[
    {
        "Altitude(m)": 553909.5293313537,
        "Argument of Periapsis(deg)": 0.033114955553567506,
        "Eccentricity": 0.0,
        "Inclination(deg)": 53.0,
        "Latitude(deg)": 21.196186504536993,
        "Longitude(deg)": -12.092280678980584,
        "Mean Anomaly(deg)": 26.821664337887906,
        "RAAN(deg)": 74.95071684264009,
        "Satellite Name": "Starlink Shell 1 350",
        "Satellite Number": 350,
        "Semi-Major Axis(m)": 6931778.249405717,
        "Time(s)": 950
    },
    {
        "Altitude(m)": 553954.8507573863,
        "Argument of Periapsis(deg)": 0.03346353403307874,
        "Eccentricity": 0.0,
        "Inclination(deg)": 53.0,
        "Latitude(deg)": 21.677374170567607,
        "Longitude(deg)": -11.69908611835582,
        "Mean Anomaly(deg)": 27.448495541444665,
        "RAAN(deg)": 74.95019807256261,
        "Satellite Name": "Starlink Shell 1 350",
        "Satellite Number": 350,
        "Semi-Major Axis(m)": 6931778.249405717,
        "Time(s)": 960
    },
    {
        "Altitude(m)": 554002.1100103477,
        "Argument of Periapsis(deg)": 0.03381211251258998,
        "Eccentricity": 0.0,
        "Inclination(deg)": 53.0,
        "Latitude(deg)": 22.157390778458822,
        "Longitude(deg)": -11.303002621831393,
        "Mean Anomaly(deg)": 28.075326745001338,
        "RAAN(deg)": 74.94967930248514,
        "Satellite Name": "Starlink Shell 1 350",
        "Satellite Number": 350,
        "Semi-Major Axis(m)": 6931778.249405717,
        "Time(s)": 970
    },
    {
        "Altitude(m)": 554051.2633343049,
        "Argument of Periapsis(deg)": 0.034160690992101214,
        "Eccentricity": 0.0,
        "Inclination(deg)": 53.0,
        "Latitude(deg)": 22.63620001432939,
        "Longitude(deg)": -10.903947116837971,
        "Mean Anomaly(deg)": 28.70215794855808,
        "RAAN(deg)": 74.94916053240767,
        "Satellite Name": "Starlink Shell 1 350",
        "Satellite Number": 350,
        "Semi-Major Axis(m)": 6931778.249405717,
        "Time(s)": 980
    },
    {
        "Altitude(m)": 554102.2661864457,
        "Argument of Periapsis(deg)": 0.034509269471612446,
        "Eccentricity": 0.0,
        "Inclination(deg)": 53.0,
        "Latitude(deg)": 23.113764863252594,
        "Longitude(deg)": -10.501834866402207,
        "Mean Anomaly(deg)": 29.328989152114755,
        "RAAN(deg)": 74.9486417623302,
        "Satellite Name": "Starlink Shell 1 350",
        "Satellite Number": 350,
        "Semi-Major Axis(m)": 6931778.249405717,
        "Time(s)": 990
    }
]